[{"OBJECT_NAME":"KUIPER-00008","OBJECT_ID":"2025-088A","EPOCH":"2026-03-04T14:00:01.999872","MEAN_MOTION":14.93023305,"ECCENTRICITY":0.00098145,"INCLINATION":51.8936,"RA_OF_ASC_NODE":110.3932,"ARG_OF_PERICENTER":79.3779,"MEAN_ANOMALY":255.3771,"EPHEMERIS_TYPE":0,"CLASSIFICATION_TYPE":"U","NORAD_CAT_ID":63724,"ELEMENT_SET_NO":999,"REV_AT_EPOCH":538,"BSTAR":-0.15704258,"MEAN_MOTION_DOT":-0.01523026,"MEAN_MOTION_DDOT":0},{"OBJECT_NAME":"KUIPER-00009","OBJECT_ID":"2025-088B","EPOCH":"2026-03-04T09:08:00.301056","MEAN_MOTION":14.79897591,"ECCENTRICITY":0.00078988,"INCLINATION":51.9032,"RA_OF_ASC_NODE":130.1156,"ARG_OF_PERICENTER":82.9053,"MEAN_ANOMALY":277.2807,"EPHEMERIS_TYPE":0,"CLASSIFICATION_TYPE":"U","NORAD_CAT_ID":63725,"ELEMENT_SET_NO":999,"REV_AT_EPOCH":4699,"BSTAR":-0.00093146714,"MEAN_MOTION_DOT":-7.314e-5,"MEAN_MOTION_DDOT":0},{"OBJECT_NAME":"KUIPER-00010","OBJECT_ID":"2025-088C","EPOCH":"2026-03-04T12:11:16.857600","MEAN_MOTION":14.79929828,"ECCENTRICITY":0.00010024,"INCLINATION":51.901,"RA_OF_ASC_NODE":106.0054,"ARG_OF_PERICENTER":100.8133,"MEAN_ANOMALY":259.2943,"EPHEMERIS_TYPE":0,"CLASSIFICATION_TYPE":"U","NORAD_CAT_ID":63726,"ELEMENT_SET_NO":999,"REV_AT_EPOCH":4696,"BSTAR":0.00052701274,"MEAN_MOTION_DOT":3.798e-5,"MEAN_MOTION_DDOT":0},{"OBJECT_NAME":"KUIPER-00011","OBJECT_ID":"2025-088D","EPOCH":"2026-03-04T07:55:58.379520","MEAN_MOTION":14.80040626,"ECCENTRICITY":4.318e-5,"INCLINATION":51.8994,"RA_OF_ASC_NODE":114.3518,"ARG_OF_PERICENTER":54.9938,"MEAN_ANOMALY":305.1064,"EPHEMERIS_TYPE":0,"CLASSIFICATION_TYPE":"U","NORAD_CAT_ID":63727,"ELEMENT_SET_NO":999,"REV_AT_EPOCH":4696,"BSTAR":0.00087723775,"MEAN_MOTION_DOT":6.49e-5,"MEAN_MOTION_DDOT":0},{"OBJECT_NAME":"KUIPER-00012","OBJECT_ID":"2025-088E","EPOCH":"2026-03-04T12:22:51.725280","MEAN_MOTION":14.80187249,"ECCENTRICITY":8.021e-5,"INCLINATION":51.901,"RA_OF_ASC_NODE":98.4588,"ARG_OF_PERICENTER":313.8329,"MEAN_ANOMALY":46.2567,"EPHEMERIS_TYPE":0,"CLASSIFICATION_TYPE":"U","NORAD_CAT_ID":63728,"ELEMENT_SET_NO":999,"REV_AT_EPOCH":4715,"BSTAR":-0.011801575,"MEAN_MOTION_DOT":-0.00089541,"MEAN_MOTION_DDOT":0},{"OBJECT_NAME":"KUIPER-00013","OBJECT_ID":"2025-088F","EPOCH":"2026-03-04T13:58:22.222560","MEAN_MOTION":14.79933603,"ECCENTRICITY":0.00026924,"INCLINATION":51.9003,"RA_OF_ASC_NODE":130.6824,"ARG_OF_PERICENTER":47.6301,"MEAN_ANOMALY":312.4889,"EPHEMERIS_TYPE":0,"CLASSIFICATION_TYPE":"U","NORAD_CAT_ID":63729,"ELEMENT_SET_NO":999,"REV_AT_EPOCH":4681,"BSTAR":0.0072856547,"MEAN_MOTION_DOT":0.00055785,"MEAN_MOTION_DDOT":0},{"OBJECT_NAME":"KUIPER-00014","OBJECT_ID":"2025-088G","EPOCH":"2026-03-04T09:03:58.590144","MEAN_MOTION":14.79998661,"ECCENTRICITY":4.477e-5,"INCLINATION":51.901,"RA_OF_ASC_NODE":132.5556,"ARG_OF_PERICENTER":17.0671,"MEAN_ANOMALY":343.0306,"EPHEMERIS_TYPE":0,"CLASSIFICATION_TYPE":"U","NORAD_CAT_ID":63730,"ELEMENT_SET_NO":999,"REV_AT_EPOCH":4658,"BSTAR":0.0011118521,"MEAN_MOTION_DOT":8.278e-5,"MEAN_MOTION_DDOT":0},{"OBJECT_NAME":"KUIPER-00015","OBJECT_ID":"2025-088H","EPOCH":"2026-03-04T14:28:59.859840","MEAN_MOTION":14.83592691,"ECCENTRICITY":0.00097061,"INCLINATION":51.8986,"RA_OF_ASC_NODE":140.9567,"ARG_OF_PERICENTER":57.9633,"MEAN_ANOMALY":302.2272,"EPHEMERIS_TYPE":0,"CLASSIFICATION_TYPE":"U","NORAD_CAT_ID":63731,"ELEMENT_SET_NO":999,"REV_AT_EPOCH":4694,"BSTAR":0.0010176412,"MEAN_MOTION_DOT":8.256e-5,"MEAN_MOTION_DDOT":0},{"OBJECT_NAME":"KUIPER-00016","OBJECT_ID":"2025-088J","EPOCH":"2026-03-04T13:52:07.748544","MEAN_MOTION":14.79852213,"ECCENTRICITY":0.00065609,"INCLINATION":51.9003,"RA_OF_ASC_NODE":134.2029,"ARG_OF_PERICENTER":62.017,"MEAN_ANOMALY":298.1456,"EPHEMERIS_TYPE":0,"CLASSIFICATION_TYPE":"U","NORAD_CAT_ID":63732,"ELEMENT_SET_NO":999,"REV_AT_EPOCH":4657,"BSTAR":0.00086949306,"MEAN_MOTION_DOT":6.402e-5,"MEAN_MOTION_DDOT":0},{"OBJECT_NAME":"KUIPER-00018","OBJECT_ID":"2025-088K","EPOCH":"2026-03-04T14:00:01.999872","MEAN_MOTION":14.79831547,"ECCENTRICITY":0.00017424,"INCLINATION":51.9014,"RA_OF_ASC_NODE":123.1478,"ARG_OF_PERICENTER":116.6543,"MEAN_ANOMALY":207.6287,"EPHEMERIS_TYPE":0,"CLASSIFICATION_TYPE":"U","NORAD_CAT_ID":63733,"ELEMENT_SET_NO":999,"REV_AT_EPOCH":297,"BSTAR":0.0032929027,"MEAN_MOTION_DOT":0.00024914,"MEAN_MOTION_DDOT":0},{"OBJECT_NAME":"KUIPER-00019","OBJECT_ID":"2025-088L","EPOCH":"2026-03-04T10:56:59.196480","MEAN_MOTION":14.79941945,"ECCENTRICITY":5.386e-5,"INCLINATION":51.9002,"RA_OF_ASC_NODE":122.2381,"ARG_OF_PERICENTER":89.6901,"MEAN_ANOMALY":270.4123,"EPHEMERIS_TYPE":0,"CLASSIFICATION_TYPE":"U","NORAD_CAT_ID":63734,"ELEMENT_SET_NO":999,"REV_AT_EPOCH":4673,"BSTAR":0.00032431522,"MEAN_MOTION_DOT":2.253e-5,"MEAN_MOTION_DDOT":0},{"OBJECT_NAME":"KUIPER-00020","OBJECT_ID":"2025-088M","EPOCH":"2026-03-04T14:06:10.279008","MEAN_MOTION":14.79861573,"ECCENTRICITY":0.00065348,"INCLINATION":51.9017,"RA_OF_ASC_NODE":125.6508,"ARG_OF_PERICENTER":67.881,"MEAN_ANOMALY":292.2846,"EPHEMERIS_TYPE":0,"CLASSIFICATION_TYPE":"U","NORAD_CAT_ID":63735,"ELEMENT_SET_NO":999,"REV_AT_EPOCH":4690,"BSTAR":-0.00017270986,"MEAN_MOTION_DOT":-1.537e-5,"MEAN_MOTION_DDOT":0},{"OBJECT_NAME":"KUIPER-00021","OBJECT_ID":"2025-088N","EPOCH":"2026-03-04T09:12:02.234880","MEAN_MOTION":14.79936506,"ECCENTRICITY":0.00032058,"INCLINATION":51.9005,"RA_OF_ASC_NODE":127.55,"ARG_OF_PERICENTER":80.9956,"MEAN_ANOMALY":279.1369,"EPHEMERIS_TYPE":0,"CLASSIFICATION_TYPE":"U","NORAD_CAT_ID":63736,"ELEMENT_SET_NO":999,"REV_AT_EPOCH":4669,"BSTAR":0.00039046862,"MEAN_MOTION_DOT":2.756e-5,"MEAN_MOTION_DDOT":0},{"OBJECT_NAME":"KUIPER-00023","OBJECT_ID":"2025-088P","EPOCH":"2026-03-04T09:10:27.598368","MEAN_MOTION":14.79895924,"ECCENTRICITY":0.00081992,"INCLINATION":51.901,"RA_OF_ASC_NODE":129.0138,"ARG_OF_PERICENTER":83.1456,"MEAN_ANOMALY":277.0439,"EPHEMERIS_TYPE":0,"CLASSIFICATION_TYPE":"U","NORAD_CAT_ID":63737,"ELEMENT_SET_NO":999,"REV_AT_EPOCH":4697,"BSTAR":-0.0002502913,"MEAN_MOTION_DOT":-2.13e-5,"MEAN_MOTION_DDOT":0},{"OBJECT_NAME":"KUIPER-00024","OBJECT_ID":"2025-088Q","EPOCH":"2026-03-04T12:44:22.094592","MEAN_MOTION":14.79935668,"ECCENTRICITY":5.919e-5,"INCLINATION":51.9042,"RA_OF_ASC_NODE":115.9255,"ARG_OF_PERICENTER":73.1345,"MEAN_ANOMALY":286.9682,"EPHEMERIS_TYPE":0,"CLASSIFICATION_TYPE":"U","NORAD_CAT_ID":63738,"ELEMENT_SET_NO":999,"REV_AT_EPOCH":4729,"BSTAR":0.00030272583,"MEAN_MOTION_DOT":2.088e-5,"MEAN_MOTION_DDOT":0},{"OBJECT_NAME":"KUIPER-00025","OBJECT_ID":"2025-088R","EPOCH":"2026-03-04T13:47:56.121504","MEAN_MOTION":14.83465336,"ECCENTRICITY":2.837e-5,"INCLINATION":51.902,"RA_OF_ASC_NODE":124.0973,"ARG_OF_PERICENTER":33.8276,"MEAN_ANOMALY":326.2706,"EPHEMERIS_TYPE":0,"CLASSIFICATION_TYPE":"U","NORAD_CAT_ID":63739,"ELEMENT_SET_NO":999,"REV_AT_EPOCH":4704,"BSTAR":0.00087601224,"MEAN_MOTION_DOT":7.048e-5,"MEAN_MOTION_DDOT":0}]
