KUIPER-00008            
1 63724U 25088A   26063.58335648 -.01523026  00000+0 -15704+0 0  9990
2 63724  51.8936 110.3932 0009814  79.3779 255.3771 14.93023305  5385
KUIPER-00009            
1 63725U 25088B   26063.38055904 -.00007314  00000+0 -93147-3 0  9990
2 63725  51.9032 130.1156 0007898  82.9053 277.2807 14.79897591 46992
KUIPER-00010            
1 63726U 25088C   26063.50783400  .00003798  00000+0  52701-3 0  9995
2 63726  51.9010 106.0054 0001002 100.8133 259.2943 14.79929828 46965
KUIPER-00011            
1 63727U 25088D   26063.33053680  .00006490  00000+0  87724-3 0  9992
2 63727  51.8994 114.3518 0000431  54.9938 305.1064 14.80040626 46967
KUIPER-00012            
1 63728U 25088E   26063.51587645 -.00089541  00000+0 -11802-1 0  9998
2 63728  51.9010  98.4588 0000802 313.8329  46.2567 14.80187249 47156
KUIPER-00013            
1 63729U 25088F   26063.58220165  .00055785  00000+0  72857-2 0  9996
2 63729  51.9003 130.6824 0002692  47.6301 312.4889 14.79933603 46810
KUIPER-00014            
1 63730U 25088G   26063.37776146  .00008278  00000+0  11119-2 0  9999
2 63730  51.9010 132.5556 0000447  17.0671 343.0306 14.79998661 46583
KUIPER-00015            
1 63731U 25088H   26063.60347060  .00008256  00000+0  10176-2 0  9993
2 63731  51.8986 140.9567 0009706  57.9633 302.2272 14.83592691 46945
KUIPER-00016            
1 63732U 25088J   26063.57786746  .00006402  00000+0  86949-3 0  9991
2 63732  51.9003 134.2029 0006560  62.0170 298.1456 14.79852213 46574
KUIPER-00018            
1 63733U 25088K   26063.58335648  .00024914  00000+0  32929-2 0  9990
2 63733  51.9014 123.1478 0001742 116.6543 207.6287 14.79831547  2979
KUIPER-00019            
1 63734U 25088L   26063.45624070  .00002253  00000+0  32432-3 0  9999
2 63734  51.9002 122.2381 0000538  89.6901 270.4123 14.79941945 46732
KUIPER-00020            
1 63735U 25088M   26063.58761897 -.00001537  00000+0 -17271-3 0  9993
2 63735  51.9017 125.6508 0006534  67.8810 292.2846 14.79861573 46907
KUIPER-00021            
1 63736U 25088N   26063.38335920  .00002756  00000+0  39047-3 0  9993
2 63736  51.9005 127.5500 0003205  80.9956 279.1369 14.79936506 46696
KUIPER-00023            
1 63737U 25088P   26063.38226387 -.00002130  00000+0 -25029-3 0  9993
2 63737  51.9010 129.0138 0008199  83.1456 277.0439 14.79895924 46978
KUIPER-00024            
1 63738U 25088Q   26063.53081128  .00002088  00000+0  30273-3 0  9990
2 63738  51.9042 115.9255 0000591  73.1345 286.9682 14.79935668 47297
KUIPER-00025            
1 63739U 25088R   26063.57495511  .00007048  00000+0  87601-3 0  9998
2 63739  51.9020 124.0973 0000283  33.8276 326.2706 14.83465336 47049
